#dP2018 11 26  0  0  0.00000000      96 __u+U IGS08 FIT  IAC
## 2029  86400.00000000   900.00000000 58448 0.0000000000000
+   92   C01C02C03C04C05C06C07C08C09C10C11C12C13C14E01E02E03
+        E04E05E07E08E09E11E12E14E18E19E21E24E25E26E27E30E31
+        G01G02G03G04G05G06G07G08G09G10G11G12G13G14G15G16G17
+        G19G20G21G22G23G24G25G26G27G28G29G30G31G32J01J02J03
+        J07R01R02R03R04R05R07R08R09R10R11R13R14R15R16R17R18
+        R19R20R21R22R23R24R26  0  0  0  0  0  0  0  0  0  0
++        13 12 13 13 12  8  8  8  8  8  8  7  8  7  7  7  7
++         7  7  7  7  7  7  7  7  7  7  7  7  7  7  7  7  6
++         3  3  3  6  3  3  3  3  3  3  3  3  3  3  3  3  3
++         3  3  3  3  3  3  3  3  3  3  3  3  3  3  9 12 12
++        14  5  5  5  5  5  5  5  7  5  5  5  5  0  5  5  5
++         6  5  5  7  5  7  8  0  0  0  0  0  0  0  0  0  0
%c M  cc GPS ccc cccc cccc cccc cccc ccccc ccccc ccccc ccccc
%c cc cc ccc ccc cccc cccc cccc cccc ccccc ccccc ccccc ccccc
%f  1.2500000  1.025000000  0.00000000000  0.000000000000000
%f  0.0000000  0.000000000  0.00000000000  0.000000000000000
%i    0    0    0    0      0      0      0      0         0
%i    0    0    0    0      0      0      0      0         0
/* INFORMATION & ANALYSIS CENTER (IAC)            FINAL DATA
/* S/V CLOCKS ARE ALIGNED TO GPS & GLONASS TIME RESPECTIVELY
/* USING THE BROADCAST EPHEMERIS                            
/* PCV:IGS14_2029 OL/AL:FES2004  NONE     YN ORB:CoN CLK:CoN
*  2018 11 26 16 45  0.00000000
PC01 -32255.283274  27139.864921   1092.627275    -64.195807
PC02   4283.458197  41959.023011   -686.126012   -127.760066
PC03 -14864.101870  39426.468087    454.335743   -283.191795
PC04 -39588.757996  14534.251051    575.330620     -3.203986
PC05  21851.130023  36036.968698   -978.357966     99.334777
PC06  -8350.488485  26241.533085 -31557.716073     89.230620
PC07 -22870.415073  24642.072739  25293.817111   -153.916629
PC08 -17687.355313  38124.022001   5005.620679     44.204690
PC09   6291.865607  35253.649651 -21801.341036    316.706480
PC10  -5249.510826  26588.876337  32384.558557   -271.217024
PC11  15821.065934   8695.932860 -21244.158831    -60.039230
PC12   4841.234398  27531.715153    601.316995    236.422517
PC13  -8244.104481  40483.589760  -9044.693875   -397.478101
PC14  23338.556404  13353.165676  -7318.682079    314.659551
PE01   8966.164728 -18131.748012 -21604.680935   -486.288207
PE02  -8917.724086  18136.602081  21635.693573     36.725765
PE03   2070.536263  21182.229456 -20582.560328   -104.064400
PE04 -19032.980616 -21924.897728   5760.925366   -166.703675
PE05 -16218.282097   8014.469384 -23432.809085    152.787799
PE07  24953.513948   9798.289521  12560.817535    -82.614994
PE08  19289.353314  21717.519809  -5735.421461   6455.183431
PE09 -24980.063508  -9626.893211 -12612.822082   6606.167335
PE11 -16292.101536  -2288.848478  24605.164780   5711.776970
PE12  -7770.814241 -22601.050325  17475.638040   5584.675832
PE14  -9747.988952 -26495.294384  -2046.830002   6483.743819
PE18  18975.034523  18312.433505 -12712.301571   5727.016347
PE19   -236.459177 -20238.628539  21596.369276    -10.343927
PE21  25631.490403 -13403.092073  -6296.999873   -506.423491
PE24 -27077.022315   1021.465566 -11938.225814   6369.310690
PE25 -25635.035791  13398.161211   6287.787587   1971.806805
PE26  15209.567950 -18711.684027 -17152.939208   5203.832247
PE27  26824.669207   -743.595343  12503.035627    582.510788
PE30  12807.932480  12145.060500  23759.536011   5318.402506
PE31 -12290.995041 -12321.338352 -23929.944678    973.800337
PG01 -13577.423366  22601.419773  -1375.524810   -119.979283
PG02  18274.540987  -8298.279938 -16703.519667    -69.434396
PG03 -11350.775585  13391.922231 -19950.040670    164.164453
PG04 -18995.937990  -7046.268697  17211.354385    -68.333846
PG05  25861.718073  -3314.598298   5475.846530      0.047147
PG06  13383.868137   6724.708441 -21901.403664    326.907487
PG07  -2165.112657  21942.102915  14706.160049     81.419443
PG08 -11385.431495  10284.047079  21713.720089   -123.536102
PG09   5733.887652  24346.292318  -8972.893464    488.975558
PG10 -18952.129191 -11298.468503  14958.852109    159.530651
PG11  -9622.345503  23318.706381   8108.066306   -695.570889
PG12  15509.220177 -10794.590132 -18783.469533    289.137558
PG13  15168.342751  -1858.580686  21610.161475    -83.373994
PG14 -16993.592810 -14091.885596 -14592.974567    -95.370470
PG15   8879.194309 -14291.831672  20224.076549   -338.431575
PG16 -26326.281236   -282.522767   4791.308496     -3.268022
PG17  14325.928983  21376.520499  -6408.927280    -26.425678
PG19  16704.365854  13669.264442 -15690.672788   -379.864498
PG20  -9829.873950 -14315.894714  20004.063187    519.205510
PG21  -2211.731858 -20936.233991  17036.479612   -297.708421
PG22 -18622.204201  11479.696189 -14805.084001   -583.846106
PG23  -2257.386203  20546.113739 -16140.412555   -205.176822
PG24  15380.941888 -21081.940452   3783.361282    -58.714648
PG25   2767.331822 -14881.467219 -21995.173378   -682.534831
PG26 -25741.192307  -4410.151422  -5287.762970     50.649810
PG27 -16373.076414  -1046.595619  20863.656997    -23.517232
PG28  15978.488573  13539.503382  16917.254184    756.167028
PG29  -2625.231851 -24068.134541 -10937.895547    328.029099
PG30   7208.658372  15397.529654  20384.392243    -10.666052
PG31 -15355.253714  -3924.204721 -21353.129890     76.993626
PG32 -16560.208143 -19142.985443  -8173.378049   -342.315796
PJ01 -28277.240007  17599.443189 -21217.592932   -259.488945
PJ02 -29153.271402  30240.543120   8141.505945     -0.817806
PJ03 -24736.078558  24694.122943  28670.668765      1.266646
PJ07 -25405.007370  33663.046482    -24.865262 999999.999999
PR01    194.646648 -12251.081182  22363.972934     35.554318
PR02 -17715.789801 -15534.273772   9867.828945    341.455503
PR03 -22726.563979  -8724.841316  -7661.929461    149.942369
PR04 -14098.034505   3500.497873 -20964.407115    285.201024
PR05   2029.873076  12972.222473 -21862.913016     16.336847
PR07  22633.819752   8399.175467   8205.115671    -52.441092
PR08  14644.531020  -3026.983214  20705.934936     20.285960
PR09   8612.083442   7756.737860  22745.492003     40.672233
PR10  20336.281382  -3588.747943  15015.115368     36.457030
PR11  21439.198982 -13668.859076  -2303.538837    -48.286253
PR13  -7689.133951  -7991.526759 -22982.783046    -17.274724
PR14 -20323.712642   3527.176231 -14980.703995     33.386355
PR15 -22626.825703  11650.668099  -2375.685416 999999.999999
PR16 -10547.475960  15865.157534  17008.004248    107.348191
PR17 -10377.314614  -5831.095178  22565.832088    183.238079
PR18  -9175.841976  12624.686040  20175.254468     27.541288
PR19  -3498.369847  24381.511919   6651.450484    -61.848016
PR20   5033.653653  21766.052310 -12264.831843   -360.379865
PR21  10341.887407   5365.349831 -22692.338948    -16.636997
PR22   8561.767232 -14996.750605 -18817.600629    -64.624358
PR23   1008.051426 -25402.782448  -2063.115754    193.114701
PR24  -5973.467652 -20869.156735  13381.581339   -174.211610
PR26   4787.978838  22670.035893 -10688.053792      6.590812
EOF
